RASSVET-3 10
1 68369U 26102.87020833  8.72550-4 2.79310-4 0 0                     
2 68369  82.2963  85.8763 0023187 358.5690   1.5511 15.90426607      
RASSVET-3 11
1 68370U 26102.86971065  8.42730-4 2.69460-4 0 0                     
2 68370  82.2963  85.8755 0022987 358.4012   1.7182 15.90454292      
RASSVET-3 12
1 68371U 26102.86857639  9.90040-4 3.11540-4 0 0                     
2 68371  82.2961  85.8736 0022588 358.4538   1.6660 15.90794641      
RASSVET-3 13
1 68372U 26102.86811343  9.51520-4 2.98220-4 0 0                     
2 68372  82.2958  85.8726 0022152 358.4302   1.6897 15.90887459      
RASSVET-3 14
1 68373U 26102.86719907  9.30250-4 2.90300-4 0 0                     
2 68373  82.2959  85.8714 0022215 358.3214   1.7979 15.90967355      
RASSVET-3 15
1 68374U 26102.86636574  9.37940-4 2.90130-4 0 0                     
2 68374  82.2956  85.8699 0021714 358.4253   1.6947 15.91158989      
RASSVET-3 16
1 68375U 26102.75677083  6.42110-4 2.84430-4 0 0                     
2 68375  82.2942  86.0341 0021213   7.1624 352.9943 15.83824339      
SUPERVIEW NEO-2 OBJECT A
1 68377U 26102.89954861  1.98900-5 9.62060-5 0 0                     
2 68377  97.4377 111.1365 0004312 182.8831 177.2380 15.19751393      
SUPERVIEW NEO-2 OBJECT B
1 68378U 26102.89924769  1.99200-5 9.63270-5 0 0                     
2 68378  97.4354 111.1329 0006665 195.1077 164.9960 15.19748637      
STARLINK-36296
1 68380U 26102.56689815  3.41990-2 1.51890-2 0 0                     
2 68380  97.2811 244.1447 0012776  66.3501 293.9109 15.85358701      
STARLINK-37111
1 68381U 26102.82788194  2.41615-3 1.22190-3 0 0                     
2 68381  97.2835 244.2634 0001343 107.4890 252.6525 15.80915939      
STARLINK-36946
1 68382U 26102.82712963  1.77052-3 9.02640-4 0 0                     
2 68382  97.2838 244.2636 0001094  61.4895 298.6483 15.80908240      
STARLINK-37121
1 68383U 26102.82563657  1.84331-3 9.39130-4 0 0                     
2 68383  97.2836 244.2665 0000863  98.6264 261.5102 15.80903591      
STARLINK-37137
1 68384U 26102.83334491  1.55709-3 1.03070-3 0 0                     
2 68384  97.2841 244.2357 0001397  95.5008 219.8791 15.75082156      
STARLINK-37128
1 68385U 26102.82488426  2.27700-3 1.15370-3 0 0                     
2 68385  97.2835 244.2679 0000810  89.0655 271.0706 15.80911399      
CZ-2D R/B
1 68379U 26102.90182870  6.66000-5 2.13580-4 0 0                     
2 68379  97.4981 111.3772 0051413 358.8212   1.2899 15.31387141      
