[{"OBJECT_NAME":"RASSVET-3 10","OBJECT_ID":"2026-061K","EPOCH":"2026-04-12T20:53:06.620064","MEAN_MOTION":15.90426607,"ECCENTRICITY":0.0023187,"INCLINATION":82.2963,"RA_OF_ASC_NODE":85.8763,"ARG_OF_PERICENTER":358.569,"MEAN_ANOMALY":1.5511,"EPHEMERIS_TYPE":0,"CLASSIFICATION_TYPE":"U","NORAD_CAT_ID":68369,"ELEMENT_SET_NO":999,"REV_AT_EPOCH":320,"BSTAR":0.00027931,"MEAN_MOTION_DOT":0.00087255,"MEAN_MOTION_DDOT":1.548e-6},{"OBJECT_NAME":"RASSVET-3 11","OBJECT_ID":"2026-061L","EPOCH":"2026-04-12T20:52:23.129760","MEAN_MOTION":15.90454292,"ECCENTRICITY":0.0022987,"INCLINATION":82.2963,"RA_OF_ASC_NODE":85.8755,"ARG_OF_PERICENTER":358.4012,"MEAN_ANOMALY":1.7182,"EPHEMERIS_TYPE":0,"CLASSIFICATION_TYPE":"U","NORAD_CAT_ID":68370,"ELEMENT_SET_NO":999,"REV_AT_EPOCH":320,"BSTAR":0.00026946,"MEAN_MOTION_DOT":0.00084273,"MEAN_MOTION_DDOT":1.3688e-6},{"OBJECT_NAME":"RASSVET-3 12","OBJECT_ID":"2026-061M","EPOCH":"2026-04-12T20:50:45.039840","MEAN_MOTION":15.90794641,"ECCENTRICITY":0.0022588,"INCLINATION":82.2961,"RA_OF_ASC_NODE":85.8736,"ARG_OF_PERICENTER":358.4538,"MEAN_ANOMALY":1.666,"EPHEMERIS_TYPE":0,"CLASSIFICATION_TYPE":"U","NORAD_CAT_ID":68371,"ELEMENT_SET_NO":999,"REV_AT_EPOCH":320,"BSTAR":0.00031154,"MEAN_MOTION_DOT":0.00099004,"MEAN_MOTION_DDOT":2.3336e-6},{"OBJECT_NAME":"RASSVET-3 13","OBJECT_ID":"2026-061N","EPOCH":"2026-04-12T20:50:05.800416","MEAN_MOTION":15.90887459,"ECCENTRICITY":0.0022152,"INCLINATION":82.2958,"RA_OF_ASC_NODE":85.8726,"ARG_OF_PERICENTER":358.4302,"MEAN_ANOMALY":1.6897,"EPHEMERIS_TYPE":0,"CLASSIFICATION_TYPE":"U","NORAD_CAT_ID":68372,"ELEMENT_SET_NO":999,"REV_AT_EPOCH":320,"BSTAR":0.00029822,"MEAN_MOTION_DOT":0.00095152,"MEAN_MOTION_DDOT":2.0716e-6},{"OBJECT_NAME":"RASSVET-3 14","OBJECT_ID":"2026-061P","EPOCH":"2026-04-12T20:48:46.670112","MEAN_MOTION":15.90967355,"ECCENTRICITY":0.0022216,"INCLINATION":82.2959,"RA_OF_ASC_NODE":85.8714,"ARG_OF_PERICENTER":358.3214,"MEAN_ANOMALY":1.7979,"EPHEMERIS_TYPE":0,"CLASSIFICATION_TYPE":"U","NORAD_CAT_ID":68373,"ELEMENT_SET_NO":999,"REV_AT_EPOCH":320,"BSTAR":0.0002903,"MEAN_MOTION_DOT":0.00093025,"MEAN_MOTION_DDOT":1.9323e-6},{"OBJECT_NAME":"RASSVET-3 15","OBJECT_ID":"2026-061Q","EPOCH":"2026-04-12T20:47:34.302336","MEAN_MOTION":15.91158989,"ECCENTRICITY":0.0021714,"INCLINATION":82.2956,"RA_OF_ASC_NODE":85.8699,"ARG_OF_PERICENTER":358.4253,"MEAN_ANOMALY":1.6947,"EPHEMERIS_TYPE":0,"CLASSIFICATION_TYPE":"U","NORAD_CAT_ID":68374,"ELEMENT_SET_NO":999,"REV_AT_EPOCH":320,"BSTAR":0.00029013,"MEAN_MOTION_DOT":0.00093794,"MEAN_MOTION_DDOT":1.9898e-6},{"OBJECT_NAME":"RASSVET-3 16","OBJECT_ID":"2026-061R","EPOCH":"2026-04-12T18:09:45.213984","MEAN_MOTION":15.83824339,"ECCENTRICITY":0.0021213,"INCLINATION":82.2942,"RA_OF_ASC_NODE":86.0341,"ARG_OF_PERICENTER":7.1624,"MEAN_ANOMALY":352.9943,"EPHEMERIS_TYPE":0,"CLASSIFICATION_TYPE":"U","NORAD_CAT_ID":68375,"ELEMENT_SET_NO":999,"REV_AT_EPOCH":318,"BSTAR":0.00028443,"MEAN_MOTION_DOT":0.00064211,"MEAN_MOTION_DDOT":0},{"OBJECT_NAME":"SUPERVIEW NEO-2 OBJECT A","OBJECT_ID":"2026-062A","EPOCH":"2026-04-12T21:35:21.107040","MEAN_MOTION":15.19751393,"ECCENTRICITY":0.0004312,"INCLINATION":97.4377,"RA_OF_ASC_NODE":111.1365,"ARG_OF_PERICENTER":182.8831,"MEAN_ANOMALY":177.238,"EPHEMERIS_TYPE":0,"CLASSIFICATION_TYPE":"U","NORAD_CAT_ID":68377,"ELEMENT_SET_NO":999,"REV_AT_EPOCH":273,"BSTAR":9.6206e-5,"MEAN_MOTION_DOT":1.989e-5,"MEAN_MOTION_DDOT":0},{"OBJECT_NAME":"SUPERVIEW NEO-2 OBJECT B","OBJECT_ID":"2026-062B","EPOCH":"2026-04-12T21:34:55.884288","MEAN_MOTION":15.19748637,"ECCENTRICITY":0.0006665,"INCLINATION":97.4354,"RA_OF_ASC_NODE":111.1329,"ARG_OF_PERICENTER":195.1077,"MEAN_ANOMALY":164.996,"EPHEMERIS_TYPE":0,"CLASSIFICATION_TYPE":"U","NORAD_CAT_ID":68378,"ELEMENT_SET_NO":999,"REV_AT_EPOCH":273,"BSTAR":9.6327e-5,"MEAN_MOTION_DOT":1.992e-5,"MEAN_MOTION_DDOT":0},{"OBJECT_NAME":"CZ-2D R/B","OBJECT_ID":"2026-062C","EPOCH":"2026-04-12T21:38:38.550912","MEAN_MOTION":15.31387141,"ECCENTRICITY":0.0051413,"INCLINATION":97.4981,"RA_OF_ASC_NODE":111.3772,"ARG_OF_PERICENTER":358.8212,"MEAN_ANOMALY":1.2899,"EPHEMERIS_TYPE":0,"CLASSIFICATION_TYPE":"U","NORAD_CAT_ID":68379,"ELEMENT_SET_NO":999,"REV_AT_EPOCH":275,"BSTAR":0.00021358,"MEAN_MOTION_DOT":6.66e-5,"MEAN_MOTION_DDOT":0},{"OBJECT_NAME":"STARLINK-36296","OBJECT_ID":"2026-063A","EPOCH":"2026-04-12T13:36:20.409696","MEAN_MOTION":15.85358701,"ECCENTRICITY":0.0012776,"INCLINATION":97.2811,"RA_OF_ASC_NODE":244.1447,"ARG_OF_PERICENTER":66.3501,"MEAN_ANOMALY":293.9109,"EPHEMERIS_TYPE":0,"CLASSIFICATION_TYPE":"U","NORAD_CAT_ID":68380,"ELEMENT_SET_NO":999,"REV_AT_EPOCH":298,"BSTAR":-0.015189,"MEAN_MOTION_DOT":-0.03419901,"MEAN_MOTION_DDOT":0},{"OBJECT_NAME":"STARLINK-37111","OBJECT_ID":"2026-063B","EPOCH":"2026-04-12T19:52:09.976800","MEAN_MOTION":15.80915939,"ECCENTRICITY":0.0001343,"INCLINATION":97.2835,"RA_OF_ASC_NODE":244.2634,"ARG_OF_PERICENTER":107.489,"MEAN_ANOMALY":252.6525,"EPHEMERIS_TYPE":0,"CLASSIFICATION_TYPE":"U","NORAD_CAT_ID":68381,"ELEMENT_SET_NO":999,"REV_AT_EPOCH":301,"BSTAR":0.0012219,"MEAN_MOTION_DOT":0.00241615,"MEAN_MOTION_DDOT":0},{"OBJECT_NAME":"STARLINK-36946","OBJECT_ID":"2026-063C","EPOCH":"2026-04-12T19:51:04.997952","MEAN_MOTION":15.8090824,"ECCENTRICITY":0.0001094,"INCLINATION":97.2838,"RA_OF_ASC_NODE":244.2636,"ARG_OF_PERICENTER":61.4895,"MEAN_ANOMALY":298.6483,"EPHEMERIS_TYPE":0,"CLASSIFICATION_TYPE":"U","NORAD_CAT_ID":68382,"ELEMENT_SET_NO":999,"REV_AT_EPOCH":301,"BSTAR":0.00090264,"MEAN_MOTION_DOT":0.00177052,"MEAN_MOTION_DDOT":0},{"OBJECT_NAME":"STARLINK-37121","OBJECT_ID":"2026-063D","EPOCH":"2026-04-12T19:48:55.129248","MEAN_MOTION":15.80903591,"ECCENTRICITY":8.63e-5,"INCLINATION":97.2836,"RA_OF_ASC_NODE":244.2665,"ARG_OF_PERICENTER":98.6264,"MEAN_ANOMALY":261.5102,"EPHEMERIS_TYPE":0,"CLASSIFICATION_TYPE":"U","NORAD_CAT_ID":68383,"ELEMENT_SET_NO":999,"REV_AT_EPOCH":301,"BSTAR":0.00093913,"MEAN_MOTION_DOT":0.00184331,"MEAN_MOTION_DDOT":0},{"OBJECT_NAME":"STARLINK-37137","OBJECT_ID":"2026-063E","EPOCH":"2026-04-12T20:00:01.999008","MEAN_MOTION":15.75082156,"ECCENTRICITY":0.0001397,"INCLINATION":97.2841,"RA_OF_ASC_NODE":244.2357,"ARG_OF_PERICENTER":95.5008,"MEAN_ANOMALY":219.8791,"EPHEMERIS_TYPE":0,"CLASSIFICATION_TYPE":"U","NORAD_CAT_ID":68384,"ELEMENT_SET_NO":999,"REV_AT_EPOCH":394,"BSTAR":0.0010307,"MEAN_MOTION_DOT":0.00155709,"MEAN_MOTION_DDOT":0},{"OBJECT_NAME":"STARLINK-37128","OBJECT_ID":"2026-063F","EPOCH":"2026-04-12T19:47:50.344800","MEAN_MOTION":15.80911399,"ECCENTRICITY":8.1e-5,"INCLINATION":97.2835,"RA_OF_ASC_NODE":244.2679,"ARG_OF_PERICENTER":89.0655,"MEAN_ANOMALY":271.0706,"EPHEMERIS_TYPE":0,"CLASSIFICATION_TYPE":"U","NORAD_CAT_ID":68385,"ELEMENT_SET_NO":999,"REV_AT_EPOCH":301,"BSTAR":0.0011537,"MEAN_MOTION_DOT":0.002277,"MEAN_MOTION_DDOT":0}]
